NAVSTAR 77 (USA 289)    
1 43873U 18109A   24279.79517597  .00000043  00000+0  00000+0 0  9993
2 43873  55.3408 116.6558 0031037 191.7646 180.2626  2.00560567 42655
